{
    "links": {
        "self": "http://www.neowsapp.com/rest/v1/neo/3651155?api_key=iIulBulltgU6a56xZRHN4H3l9WmuAYTsLGpBGhQ2"
    },
    "id": "3651155",
    "neo_reference_id": "3651155",
    "name": "(2013 TU132)",
    "designation": "2013 TU132",
    "nasa_jpl_url": "http://ssd.jpl.nasa.gov/sbdb.cgi?sstr=3651155",
    "absolute_magnitude_h": 24.5,
    "estimated_diameter": {
        "kilometers": {
            "estimated_diameter_min": 0.0334622374,
            "estimated_diameter_max": 0.0748238376
        },
        "meters": {
            "estimated_diameter_min": 33.4622374455,
            "estimated_diameter_max": 74.8238376074
        },
        "miles": {
            "estimated_diameter_min": 0.0207924639,
            "estimated_diameter_max": 0.0464933628
        },
        "feet": {
            "estimated_diameter_min": 109.7842471007,
            "estimated_diameter_max": 245.4850393757
        }
    },
    "is_potentially_hazardous_asteroid": false,
    "close_approach_data": [
        {
            "close_approach_date": "2013-10-07",
            "close_approach_date_full": "2013-Oct-07 06:10",
            "epoch_date_close_approach": 1381126200000,
            "relative_velocity": {
                "kilometers_per_second": "6.9624263514",
                "kilometers_per_hour": "25064.7348650498",
                "miles_per_hour": "15574.2515054528"
            },
            "miss_distance": {
                "astronomical": "0.2112510009",
                "lunar": "82.1766393501",
                "kilometers": "31602699.770008083",
                "miles": "19637007.0569662254"
            },
            "orbiting_body": "Earth"
        }
    ],
    "orbital_data": {
        "orbit_id": "6",
        "orbit_determination_date": "2017-04-06 08:44:12",
        "first_observation_date": "2013-10-11",
        "last_observation_date": "2013-10-30",
        "data_arc_in_days": 19,
        "observations_used": 17,
        "orbit_uncertainty": "8",
        "minimum_orbit_intersection": ".211334",
        "jupiter_tisserand_invariant": "4.118",
        "epoch_osculation": "2456585.5",
        "eccentricity": ".2917366190844192",
        "semi_major_axis": "1.705374381487441",
        "inclination": "13.02663884710136",
        "ascending_node_longitude": "20.88074717703146",
        "orbital_period": "813.4446905562988",
        "perihelion_distance": "1.207854225159112",
        "perihelion_argument": "348.9705769231518",
        "aphelion_distance": "2.202894537815769",
        "perihelion_time": "2456567.810817648772",
        "mean_anomaly": "7.828566244727783",
        "mean_motion": ".442562357563368",
        "equinox": "J2000",
        "orbit_class": {
            "orbit_class_type": "AMO",
            "orbit_class_description": "Near-Earth asteroid orbits similar to that of 1221 Amor",
            "orbit_class_range": "1.017 AU < q (perihelion) < 1.3 AU"
        }
    },
    "is_sentry_object": false
}